SatCatId,ObjectName,LaunchYear,OrbitalPeriod,LaunchMass,StatusCode,Inclination,Status,UcsData,OrbitClassEstimated,LaunchSiteCountry,Owner,UseType,Purpose,LaunchVehicleClass,TLE1,TLE2,MeanMotion,Eccentricity,OrbitClass
9415,OPS 5721 (DMSP 5D-1 F1),1976,100.91,-1.0,-,98.29,Inactive,0,LEO,USA,USA,Unknown,Unknown,Unknown,1 09415U 76091A   24248.48425438  .00001257  00000+0  53246-3 0  9997,2 09415  98.2860  59.8029 0018005  21.2764 338.9163 14.27018047259679,14.27018047,0.0018005,LEO
9416,RADUGA 2,1976,1435.71,-1.0,-,5.16,Inactive,0,GSO,Kazakhstan,Russia/USSR,Unknown,Unknown,Unknown,1 09416U 76092A   24248.58870267 -.00000093  00000+0  00000+0 0  9998,2 09416   5.1624 279.3066 0027044  17.9523 333.0515  1.00298625122814,1.00298625,0.0027044,GSO
17611,RADUGA 20,1987,1500.61,-1.0,-,14.2,Inactive,0,HEO,Kazakhstan,Russia/USSR,Unknown,Unknown,Unknown,1 17611U 87028A   24248.40196295 -.00000105  00000+0  00000+0 0  9992,2 17611  14.2039 332.9024 0030586 160.3640 210.6823  0.95961152132075,0.95961152,0.0030586,HEO
9443,COSMOS 858,1976,100.37,-1.0,UNK,74.05,Inactive,0,LEO,Russia,Russia/USSR,Unknown,Unknown,Unknown,1 09443U 76098A   24248.52821602  .00000676  00000+0  24755-3 0  9990,2 09443  74.0473 269.6756 0013980 194.5694 165.5057 14.34706772505423,14.34706772,0.001398,LEO
25847,MOLNIYA 3-50,1999,717.95,-1.0,UNK,63.48,Inactive,0,MEO,Russia,Russia/USSR,Unknown,Unknown,Unknown,1 25847U 99036A   24247.98868886  .00000100  00000+0 -41189-1 0  9998,2 25847  63.4790 224.4894 6960744 281.9201  13.3244  2.00572443184354,2.00572443,0.6960744,MEO
25851,GLOBALSTAR M035,1999,130.37,-1.0,-,52.0,Inactive,0,MEO,USA,Globalstar,Unknown,Unknown,Unknown,1 25851U 99037A   24248.51600653  .00000010  00000+0  27697-2 0  9998,2 25851  51.9987 332.0399 0013519 237.5072 217.3699 11.04532249 64699,11.04532249,0.0013519,MEO
25852,GLOBALSTAR M032,1999,128.68,-1.0,-,51.99,Inactive,0,MEO,USA,Globalstar,Unknown,Unknown,Unknown,1 25852U 99037B   24248.04958675  .00000027  00000+0  29946-2 0  9994,2 25852  51.9930 178.0146 0010827  43.6087 316.5567 11.19061999102758,11.19061999,0.0010827,MEO
25853,GLOBALSTAR M051,1999,126.07,-1.0,-,51.98,Inactive,0,LEO,USA,Globalstar,Unknown,Unknown,Unknown,1 25853U 99037C   24248.50023354 -.00000046  00000+0  63513-3 0  9994,2 25853  51.9837  10.0733 0001911  78.4612 281.6413 11.42199133 99740,11.42199133,0.0001911,LEO
25854,GLOBALSTAR M030,1999,124.66,-1.0,-,51.99,Inactive,0,LEO,USA,Globalstar,Unknown,Unknown,Unknown,1 25854U 99037D   24248.17267615 -.00000089  00000+0 -30224-3 0  9999,2 25854  51.9855 195.1557 0003488 257.9374 102.1052 11.55100296116999,11.55100296,0.0003488,LEO
25860,OKEAN-O,1999,97.38,-1.0,UNK,98.03,Inactive,0,LEO,Kazakhstan,Russia/USSR,Unknown,Unknown,Unknown,1 25860U 99039A   24248.59697312  .00002944  00000+0  40775-3 0  9997,2 25860  98.0285 300.8177 0001043  72.1455 287.9870 14.78770834352890,14.78770834,0.0001043,LEO
9478,MARISAT 2,1976,1475.56,-1.0,-,7.18,Inactive,0,GSO,USA,USA,Unknown,Unknown,Unknown,1 09478U 76101A   24248.19461684 -.00000057  00000+0  00000+0 0  9993,2 09478   7.1748 311.5271 0103234 338.3742  14.8150  0.97590129117000,0.97590129,0.0103234,GSO
9481,METEOR 1-26,1976,102.12,-1.0,UNK,81.22,Inactive,0,LEO,Russia,Russia/USSR,Unknown,Unknown,Unknown,1 09481U 76102A   24248.59356898  .00000570  00000+0  31474-3 0  9994,2 09481  81.2197 319.8188 0021592 310.2093  49.7188 14.10140864461970,14.10140864,0.0021592,LEO
9486,COSMOS 860,1976,104.25,-1.0,UNK,64.7,Inactive,0,LEO,Kazakhstan,Russia/USSR,Unknown,Unknown,Unknown,1 09486U 76103A   24248.02504602 -.00000020  00000+0  65520-4 0  9997,2 09486  64.7000 111.0682 0059073 352.9012   7.1201 13.81354521792991,13.81354521,0.0059073,LEO
25872,GLOBALSTAR M048,1999,127.0,-1.0,-,51.94,Inactive,0,LEO,USA,Globalstar,Unknown,Unknown,Unknown,1 25872U 99041A   24248.12467118 -.00000040  00000+0  82244-3 0  9994,2 25872  51.9369 294.9582 0013253  50.1647 335.3868 11.33848798 92532,11.33848798,0.0013253,LEO
25873,GLOBALSTAR M026,1999,130.1,-1.0,-,52.0,Inactive,0,MEO,USA,Globalstar,Unknown,Unknown,Unknown,1 25873U 99041B   24248.57820993 -.00000081  00000+0 -61349-3 0  9997,2 25873  51.9997  92.8584 0001815 103.1419 289.7261 11.06834131116862,11.06834131,0.0001815,MEO
25874,GLOBALSTAR M043,1999,127.92,-1.0,-,51.94,Inactive,0,LEO,USA,Globalstar,Unknown,Unknown,Unknown,1 25874U 99041C   24248.61214198 -.00000105  00000+0 -10885-2 0  9992,2 25874  51.9438  30.0570 0012952 180.7736 263.4734 11.25687054 90719,11.25687054,0.0012952,LEO
25875,GLOBALSTAR M028,1999,115.15,-1.0,-,51.96,Inactive,0,LEO,USA,Globalstar,Unknown,Unknown,Unknown,1 25875U 99041D   24248.50218864 -.00000041  00000+0  38164-3 0  9994,2 25875  51.9646 324.9172 0063784 170.7164 189.4891 12.50563144154430,12.50563144,0.0063784,LEO
9494,COSMOS 861,1976,104.22,-1.0,UNK,64.86,Inactive,0,LEO,Kazakhstan,Russia/USSR,Unknown,Unknown,Unknown,1 09494U 76104A   24248.57978277  .00000014  00000+0  95163-4 0  9998,2 09494  64.8601 307.5914 0050345 345.0467  14.9099 13.81663993416055,13.81663993,0.0050345,LEO
9495,COSMOS 862,1976,717.28,-1.0,UNK,69.8,Inactive,0,MEO,Russia,Russia/USSR,Unknown,Unknown,Unknown,1 09495U 76105A   24248.07302044 -.00000808  00000+0  00000+0 0  9991,2 09495  69.7975  78.9318 6393080 203.6453 104.7823  2.00759539228603,2.00759539,0.639308,MEO
25880,TELKOM 1,1999,1436.33,-1.0,-,6.05,Inactive,0,GSO,French Guiana,Indonesia,Unknown,Unknown,Unknown,1 25880U 99042A   24248.58661755  .00000015  00000+0  00000+0 0  9994,2 25880   6.0556  73.7149 0013749 233.6244 312.0321  1.00255786 91866,1.00255786,0.0013749,GSO
25883,GLOBALSTAR M024,1999,129.71,-1.0,-,52.0,Inactive,0,MEO,USA,Globalstar,Unknown,Unknown,Unknown,1 25883U 99043A   24248.51186205 -.00000048  00000+0  59227-3 0  9999,2 25883  52.0035 305.2082 0001139 356.3271 113.5590 11.10163585 83134,11.10163585,0.0001139,MEO
25884,GLOBALSTAR M027,1999,130.39,-1.0,-,52.03,Inactive,0,MEO,USA,Globalstar,Unknown,Unknown,Unknown,1 25884U 99043B   24248.56695369 -.00000134  00000+0 -26750-2 0  9992,2 25884  52.0256  14.9676 0020814 249.0365 110.8201 11.04368900109685,11.043689,0.0020814,MEO
25885,GLOBALSTAR M054,1999,126.4,-1.0,-,52.01,Inactive,0,LEO,USA,Globalstar,Unknown,Unknown,Unknown,1 25885U 99043C   24248.28170001 -.00000183  00000+0 -28393-2 0  9992,2 25885  52.0115 190.8817 0005823  47.0183 101.2776 11.39210533 86465,11.39210533,0.0005823,LEO
25886,GLOBALSTAR M053,1999,127.7,-1.0,-,52.0,Inactive,0,LEO,USA,Globalstar,Unknown,Unknown,Unknown,1 25886U 99043D   24248.04536354 -.00000025  00000+0  12606-2 0  9998,2 25886  51.9972 122.6693 0003447 330.6291 172.7010 11.27658273 87167,11.27658273,0.0003447,LEO
9503,EKRAN 1,1976,1436.49,-1.0,-,5.25,Inactive,0,GSO,Kazakhstan,Russia/USSR,Unknown,Unknown,Unknown,1 09503U 76107A   24248.58514059  .00000074  00000+0  00000+0 0  9994,2 09503   5.2512 279.7343 0070615 171.5023 159.5348  1.00244242191989,1.00244242,0.0070615,GSO
25892,COSMOS 2366,1999,104.76,-1.0,-,82.93,Inactive,0,LEO,Russia,Russia/USSR,Unknown,Unknown,Unknown,1 25892U 99045A   24248.51899806  .00000183  00000+0  17700-3 0  9998,2 25892  82.9252 246.8211 0031909  14.4592 104.1157 13.74599550255556,13.7459955,0.0031909,LEO
9509,COSMOS 864,1976,104.69,-1.0,UNK,82.94,Inactive,0,LEO,Russia,Russia/USSR,Unknown,Unknown,Unknown,1 09509U 76108A   24248.63084333  .00000154  00000+0  14323-3 0  9990,2 09509  82.9362 272.0733 0030486 158.5887 322.5096 13.75488259401006,13.75488259,0.0030486,LEO
25894,ABS-7,1999,1440.66,-1.0,-,4.82,Inactive,0,GSO,French Guiana,ABS,Unknown,Unknown,Unknown,1 25894U 99046A   24248.59104844 -.00000128  00000+0  00000+0 0  9991,2 25894   4.8182  78.5447 0003929  79.1516 125.6146  0.99954205 90579,0.99954205,0.0003929,GSO
25896,YAMAL 101,1999,1442.02,-1.0,-,14.51,Inactive,0,GSO,Kazakhstan,Russia/USSR,Unknown,Unknown,Unknown,1 25896U 99047A   24247.92896906  .00000108  00000+0  00000+0 0  9994,2 25896  14.5099   4.3693 0086882  49.0132 312.9492  0.99860100 91302,0.998601,0.0086882,GSO
25897,YAMAL 102,1999,1440.17,-1.0,-,13.17,Inactive,0,GSO,Kazakhstan,Russia/USSR,Unknown,Unknown,Unknown,1 25897U 99047B   24248.50693983  .00000103  00000+0  00000+0 0  9995,2 25897  13.1719  17.3391 0000795 109.1224 249.4300  0.99987909 91483,0.99987909,7.95e-05,GSO
17706,AGILA 1 (PALAPA B2P),1987,1441.3,-1.0,UNK,14.63,Inactive,0,GSO,USA,Philippines,Unknown,Unknown,Unknown,1 17706U 87029A   24248.62507414 -.00000338  00000+0  00000+0 0  9999,2 17706  14.6334 353.0896 0003296 124.9909 204.7066  0.99909902 36025,0.99909902,0.0003296,GSO
25907,GLOBALSTAR M058,1999,120.69,-1.0,-,51.99,Inactive,0,LEO,Kazakhstan,Globalstar,Unknown,Unknown,Unknown,1 25907U 99049A   24248.14756205 -.00000033  00000+0  68815-3 0  9991,2 25907  51.9931 152.9682 0002594  77.2990 282.8134 11.93181401507391,11.93181401,0.0002594,LEO
25908,GLOBALSTAR M050,1999,119.26,-1.0,-,52.0,Inactive,0,LEO,Kazakhstan,Globalstar,Unknown,Unknown,Unknown,1 25908U 99049B   24248.22496465  .00000009  00000+0  11006-2 0  9991,2 25908  51.9971 181.8006 0008657 180.2919 328.5278 12.07438988113648,12.07438988,0.0008657,LEO
25909,GLOBALSTAR M033,1999,118.01,-1.0,-,51.99,Inactive,0,LEO,Kazakhstan,Globalstar,Unknown,Unknown,Unknown,1 25909U 99049C   24248.48538086 -.00000101  00000+0 -91440-4 0  9993,2 25909  51.9918  72.6523 0013262  40.6802 319.5034 12.20276743500867,12.20276743,0.0013262,LEO
25910,GLOBALSTAR M055,1999,117.13,-1.0,-,52.0,Inactive,0,LEO,Kazakhstan,Globalstar,Unknown,Unknown,Unknown,1 25910U 99049D   24247.75196428 -.00000026  00000+0  58573-3 0  9998,2 25910  52.0008  99.4052 0006257 258.0784 101.9366 12.29408131133056,12.29408131,0.0006257,LEO
25913,ECHOSTAR 5,1999,1458.25,-1.0,-,10.79,Inactive,0,GSO,USA,USA,Unknown,Unknown,Unknown,1 25913U 99050A   24248.57424311 -.00000162  00000+0  00000+0 0  9998,2 25913  10.7953  40.9906 0003293 125.5133 209.6430  0.98748337 90442,0.98748337,0.0003293,GSO
